OBJECT_NAME,OBJECT_ID,EPOCH,MEAN_MOTION,ECCENTRICITY,INCLINATION,RA_OF_ASC_NODE,ARG_OF_PERICENTER,MEAN_ANOMALY,EPHEMERIS_TYPE,CLASSIFICATION_TYPE,NORAD_CAT_ID,ELEMENT_SET_NO,REV_AT_EPOCH,BSTAR,MEAN_MOTION_DOT,MEAN_MOTION_DDOT
SAUDISAT 1C (SO-50),2002-058C,2026-06-15T08:01:51.375360,14.83043230,.0075307,64.5510,134.7171,262.8143,96.4397,0,U,27607,999,26418,.11895E-3,.861E-5,0
SAUDISAT 2,2004-025F,2026-06-15T12:25:37.572672,14.56683103,.0023655,98.5508,166.4566,303.6308,56.2632,0,U,28371,999,16550,.58977E-4,.214E-5,0
SAUDISAT 3,2007-012B,2026-06-15T10:08:35.080800,14.71424637,.0013538,98.1456,116.8220,229.8092,130.1930,0,U,31118,999,2748,.41453E-4,.206E-5,0
PISAT,2016-059B,2026-06-15T12:13:17.939424,14.68980953,.0028238,97.8179,167.0341,208.2747,151.6928,0,U,41784,999,51949,.13293E-3,.736E-5,0
FLYING LAPTOP,2017-042G,2026-06-15T12:27:28.257984,15.01137353,.0019506,97.4672,322.1159,127.1002,233.2009,0,U,42831,999,48620,.27856E-3,.3525E-4,0
SALSAT,2020-068K,2026-06-15T12:14:46.927104,15.29779241,.0008149,97.8844,169.4726,315.3702,44.6880,0,U,46495,999,31510,.22659E-3,.6457E-4,0
